QZS-1R                  
1 49336U 21096A   23315.27827123 -.00000184  00000+0  00000+0 0  9991
2 49336  35.4956  93.8757 0749516 270.4906 281.1408  1.00269810  7499
